CALSPHERE 1             
1 00900U 64063C   18021.78408747  .00000213  00000-0  21938-3 0  9997
2 00900  90.1421  14.7392 0026723 170.7254 309.2033 13.73029189650004
CALSPHERE 2             
1 00902U 64063E   18020.93933822  .00000012  00000-0  35974-5 0  9996
2 00902  90.1477  17.0890 0019637 132.5057 245.9603 13.52656451441326
LCS 1                   
1 01361U 65034C   18021.63086994  .00000014  00000-0  77448-3 0  9994
2 01361  32.1390 262.7884 0012874 192.7388 167.2785  9.89293483905991
TEMPSAT 1               
1 01512U 65065E   18021.60153778  .00000012  00000-0  53880-5 0  9992
2 01512  89.8302 238.6017 0068624 223.7858 151.5557 13.33409662551107
CALSPHERE 4(A)          
1 01520U 65065H   18021.59643644  .00000040  00000-0  58514-4 0  9994
2 01520  90.0769 124.4151 0071470 117.5312 308.8279 13.35752915553009
OPS 5712 (P/L 160)      
1 02826U 67053A   18022.16361618  .00000484  00000-0  14604-3 0  9998
2 02826  69.9287  90.6295 0001514  97.3595 262.7710 14.48202048620388
OPS 5712 (P/L 153)      
1 02874U 67053H   18022.03258909 -.00000042  00000-0  82493-5 0  9999
2 02874  69.9716 207.7758 0009551 231.4735 128.5515 13.96304382578918
SURCAL 150B             
1 02909U 67053J   18021.53272807  .00000746  00000-0  16715-3 0  9997
2 02909  69.9481 155.2494 0005305 214.5654 145.5141 14.60572661628633
RIGIDSPHERE 2 (LCS 4)   
1 05398U 71067E   18022.19043810  .00000169  00000-0  53730-4 0  9993
2 05398  87.6229 106.1348 0061264 284.8066  74.6349 14.33659248434163
